{"type": "FeatureCollection", "features": [ {"type": "Feature", "properties": {"norad_id": 58654, "name": "BEIDOU-3 M28 (C50)", "group": "beidou", "lat": 47.70876177642061, "lon": 117.23527736525685, "alt_km": 21528.88564338053, "timestamp": "2025-12-17T21:39:45.953619+00:00", "meta": {"OBJECT_NAME": "BEIDOU-3 M28 (C50)", "OBJECT_ID": "2023-207A", "EPOCH": "2025-12-17T06:29:44.947968", "MEAN_MOTION": 1.86229839, "ECCENTRICITY": 0.00025948, "INCLINATION": 55.5883, "RA_OF_ASC_NODE": 68.448, "ARG_OF_PERICENTER": 271.6936, "MEAN_ANOMALY": 88.3013, "EPHEMERIS_TYPE": 0, "CLASSIFICATION_TYPE": "U", "NORAD_CAT_ID": 58654, "ELEMENT_SET_NO": 999, "REV_AT_EPOCH": 1345, "BSTAR": 0, "MEAN_MOTION_DOT": -7.5e-07, "MEAN_MOTION_DDOT": 0}, "tle": {"line1": "1 58654U 23207A   25351.27065912 -.00000075  00000+0  00000+0 0  9991", "line2": "2 58654  55.5883  68.4480 0002594 271.6936  88.3013  1.86229839 13452"}}, "geometry": {"type": "Point", "coordinates": [117.23527736525685, 47.70876177642061]}}, {"type": "Feature", "properties": {"norad_id": 58655, "name": "BEIDOU-3 M26 (C48)", "group": "beidou", "lat": -15.871665088592104, "lon": -100.35478836147136, "alt_km": 21524.452206250935, "timestamp": "2025-12-17T21:39:45.953628+00:00", "meta": {"OBJECT_NAME": "BEIDOU-3 M26 (C48)", "OBJECT_ID": "2023-207B", "EPOCH": "2025-12-17T01:38:17.973312", "MEAN_MOTION": 1.86231321, "ECCENTRICITY": 0.00040056, "INCLINATION": 55.5902, "RA_OF_ASC_NODE": 68.4411, "ARG_OF_PERICENTER": 257.8866, "MEAN_ANOMALY": 102.0924, "EPHEMERIS_TYPE": 0, "CLASSIFICATION_TYPE": "U", "NORAD_CAT_ID": 58655, "ELEMENT_SET_NO": 999, "REV_AT_EPOCH": 1343, "BSTAR": 0, "MEAN_MOTION_DOT": -7.6e-07, "MEAN_MOTION_DDOT": 0}, "tle": {"line1": "1 58655U 23207B   25351.06826358 -.00000076  00000+0  00000+0 0  9999", "line2": "2 58655  55.5902  68.4411 0004005 257.8866 102.0924  1.86231321 13438"}}, "geometry": {"type": "Point", "coordinates": [-100.35478836147136, -15.871665088592104]}}, {"type": "Feature", "properties": {"norad_id": 61186, "name": "BEIDOU-3 M25 (C47)", "group": "beidou", "lat": -34.29638736402758, "lon": -80.42829387680246, "alt_km": 21517.8372883559, "timestamp": "2025-12-17T21:39:45.953638+00:00", "meta": {"OBJECT_NAME": "BEIDOU-3 M25 (C47)", "OBJECT_ID": "2024-168B", "EPOCH": "2025-12-17T10:14:26.230272", "MEAN_MOTION": 1.86230291, "ECCENTRICITY": 0.00054394, "INCLINATION": 54.6378, "RA_OF_ASC_NODE": 308.5577, "ARG_OF_PERICENTER": 298.8835, "MEAN_ANOMALY": 58.2936, "EPHEMERIS_TYPE": 0, "CLASSIFICATION_TYPE": "U", "NORAD_CAT_ID": 61186, "ELEMENT_SET_NO": 999, "REV_AT_EPOCH": 839, "BSTAR": 0, "MEAN_MOTION_DOT": -9.1e-07, "MEAN_MOTION_DDOT": 0}, "tle": {"line1": "1 61186U 24168B   25351.42669248 -.00000091  00000+0  00000+0 0  9999", "line2": "2 61186  54.6378 308.5577 0005439 298.8835  58.2936  1.86230291  8391"}}, "geometry": {"type": "Point", "coordinates": [-80.42829387680246, -34.29638736402758]}}, {"type": "Feature", "properties": {"norad_id": 61187, "name": "BEIDOU-3 M27 (C49)", "group": "beidou", "lat": 54.61660034937127, "lon": 40.69309750179077, "alt_km": 21524.405661611214, "timestamp": "2025-12-17T21:39:45.953648+00:00", "meta": {"OBJECT_NAME": "BEIDOU-3 M27 (C49)", "OBJECT_ID": "2024-168C", "EPOCH": "2025-12-17T09:44:22.026336", "MEAN_MOTION": 1.86230445, "ECCENTRICITY": 0.00024936, "INCLINATION": 54.6333, "RA_OF_ASC_NODE": 308.542, "ARG_OF_PERICENTER": 338.9889, "MEAN_ANOMALY": 139.133, "EPHEMERIS_TYPE": 0, "CLASSIFICATION_TYPE": "U", "NORAD_CAT_ID": 61187, "ELEMENT_SET_NO": 999, "REV_AT_EPOCH": 587, "BSTAR": 0, "MEAN_MOTION_DOT": -9.1e-07, "MEAN_MOTION_DDOT": 0}, "tle": {"line1": "1 61187U 24168C   25351.40581049 -.00000091  00000+0  00000+0 0  9990", "line2": "2 61187  54.6333 308.5420 0002493 338.9889 139.1330  1.86230445  5870"}}, "geometry": {"type": "Point", "coordinates": [40.69309750179077, 54.61660034937127]}}]}